[{"OBJECT_NAME":"NIMIQ 2","OBJECT_ID":"2002-062A","EPOCH":"2026-03-02T13:35:41.501184","MEAN_MOTION":1.00272452,"ECCENTRICITY":0.0006514,"INCLINATION":9.2001,"RA_OF_ASC_NODE":58.003,"ARG_OF_PERICENTER":286.4807,"MEAN_ANOMALY":270.581,"EPHEMERIS_TYPE":0,"CLASSIFICATION_TYPE":"U","NORAD_CAT_ID":27632,"ELEMENT_SET_NO":999,"REV_AT_EPOCH":4311,"BSTAR":0,"MEAN_MOTION_DOT":-8.1e-7,"MEAN_MOTION_DDOT":0},{"OBJECT_NAME":"ANIK F2","OBJECT_ID":"2004-027A","EPOCH":"2026-03-02T15:17:54.204288","MEAN_MOTION":1.00272052,"ECCENTRICITY":0.0002927,"INCLINATION":3.0095,"RA_OF_ASC_NODE":80.8779,"ARG_OF_PERICENTER":293.7,"MEAN_ANOMALY":264.1867,"EPHEMERIS_TYPE":0,"CLASSIFICATION_TYPE":"U","NORAD_CAT_ID":28378,"ELEMENT_SET_NO":999,"REV_AT_EPOCH":4019,"BSTAR":0,"MEAN_MOTION_DOT":-6.5e-7,"MEAN_MOTION_DDOT":0},{"OBJECT_NAME":"ANIK F1R","OBJECT_ID":"2005-036A","EPOCH":"2026-03-02T15:19:01.596288","MEAN_MOTION":1.00271884,"ECCENTRICITY":0.0002761,"INCLINATION":4.0404,"RA_OF_ASC_NODE":77.9143,"ARG_OF_PERICENTER":295.7096,"MEAN_ANOMALY":269.248,"EPHEMERIS_TYPE":0,"CLASSIFICATION_TYPE":"U","NORAD_CAT_ID":28868,"ELEMENT_SET_NO":999,"REV_AT_EPOCH":4538,"BSTAR":0,"MEAN_MOTION_DOT":-9.0e-7,"MEAN_MOTION_DDOT":0},{"OBJECT_NAME":"ANIK F3","OBJECT_ID":"2007-009A","EPOCH":"2026-03-02T16:58:25.058208","MEAN_MOTION":1.00272963,"ECCENTRICITY":0.000278,"INCLINATION":0.9224,"RA_OF_ASC_NODE":85.2349,"ARG_OF_PERICENTER":260.4763,"MEAN_ANOMALY":310.6587,"EPHEMERIS_TYPE":0,"CLASSIFICATION_TYPE":"U","NORAD_CAT_ID":31102,"ELEMENT_SET_NO":999,"REV_AT_EPOCH":4549,"BSTAR":0,"MEAN_MOTION_DOT":-1.7e-7,"MEAN_MOTION_DDOT":0},{"OBJECT_NAME":"NIMIQ 4","OBJECT_ID":"2008-044A","EPOCH":"2026-03-02T13:43:33.247776","MEAN_MOTION":1.00270743,"ECCENTRICITY":0.0002317,"INCLINATION":0.0248,"RA_OF_ASC_NODE":102.873,"ARG_OF_PERICENTER":251.0335,"MEAN_ANOMALY":290.3147,"EPHEMERIS_TYPE":0,"CLASSIFICATION_TYPE":"U","NORAD_CAT_ID":33373,"ELEMENT_SET_NO":999,"REV_AT_EPOCH":6391,"BSTAR":0,"MEAN_MOTION_DOT":-2.37e-6,"MEAN_MOTION_DDOT":0},{"OBJECT_NAME":"TELSTAR 11N","OBJECT_ID":"2009-009A","EPOCH":"2026-03-02T17:21:37.834848","MEAN_MOTION":1.00273014,"ECCENTRICITY":0.0002465,"INCLINATION":0.0199,"RA_OF_ASC_NODE":130.3521,"ARG_OF_PERICENTER":197.5012,"MEAN_ANOMALY":55.4876,"EPHEMERIS_TYPE":0,"CLASSIFICATION_TYPE":"U","NORAD_CAT_ID":34111,"ELEMENT_SET_NO":999,"REV_AT_EPOCH":4517,"BSTAR":0,"MEAN_MOTION_DOT":-2.67e-6,"MEAN_MOTION_DDOT":0},{"OBJECT_NAME":"TERRESTAR-1","OBJECT_ID":"2009-035A","EPOCH":"2026-03-02T13:34:37.440768","MEAN_MOTION":1.00270461,"ECCENTRICITY":0.00029,"INCLINATION":5.0947,"RA_OF_ASC_NODE":48.8329,"ARG_OF_PERICENTER":299.7768,"MEAN_ANOMALY":264.3814,"EPHEMERIS_TYPE":0,"CLASSIFICATION_TYPE":"U","NORAD_CAT_ID":35496,"ELEMENT_SET_NO":999,"REV_AT_EPOCH":6106,"BSTAR":0,"MEAN_MOTION_DOT":-7.0e-7,"MEAN_MOTION_DDOT":0},{"OBJECT_NAME":"NIMIQ 5","OBJECT_ID":"2009-050A","EPOCH":"2026-03-02T13:46:10.495776","MEAN_MOTION":1.00270099,"ECCENTRICITY":0.000267,"INCLINATION":0.0573,"RA_OF_ASC_NODE":272.0528,"ARG_OF_PERICENTER":71.7061,"MEAN_ANOMALY":310.4064,"EPHEMERIS_TYPE":0,"CLASSIFICATION_TYPE":"U","NORAD_CAT_ID":35873,"ELEMENT_SET_NO":999,"REV_AT_EPOCH":6027,"BSTAR":0,"MEAN_MOTION_DOT":-2.74e-6,"MEAN_MOTION_DDOT":0},{"OBJECT_NAME":"SKYTERRA 1","OBJECT_ID":"2010-061A","EPOCH":"2026-03-02T13:37:56.286048","MEAN_MOTION":1.00271346,"ECCENTRICITY":0.0001607,"INCLINATION":4.8984,"RA_OF_ASC_NODE":50.9142,"ARG_OF_PERICENTER":286.3749,"MEAN_ANOMALY":286.2007,"EPHEMERIS_TYPE":0,"CLASSIFICATION_TYPE":"U","NORAD_CAT_ID":37218,"ELEMENT_SET_NO":999,"REV_AT_EPOCH":5612,"BSTAR":0,"MEAN_MOTION_DOT":-1.32e-6,"MEAN_MOTION_DDOT":0},{"OBJECT_NAME":"TELSTAR 14R","OBJECT_ID":"2011-021A","EPOCH":"2026-03-02T12:06:05.091840","MEAN_MOTION":1.00273144,"ECCENTRICITY":0.0002455,"INCLINATION":0.0408,"RA_OF_ASC_NODE":275.3733,"ARG_OF_PERICENTER":71.8133,"MEAN_ANOMALY":291.593,"EPHEMERIS_TYPE":0,"CLASSIFICATION_TYPE":"U","NORAD_CAT_ID":37602,"ELEMENT_SET_NO":999,"REV_AT_EPOCH":5476,"BSTAR":0,"MEAN_MOTION_DOT":-2.97e-6,"MEAN_MOTION_DDOT":0},{"OBJECT_NAME":"NIMIQ 6","OBJECT_ID":"2012-026A","EPOCH":"2026-03-02T13:40:55.999776","MEAN_MOTION":1.00271052,"ECCENTRICITY":0.000265,"INCLINATION":0.0595,"RA_OF_ASC_NODE":278.9549,"ARG_OF_PERICENTER":56.0369,"MEAN_ANOMALY":299.477,"EPHEMERIS_TYPE":0,"CLASSIFICATION_TYPE":"U","NORAD_CAT_ID":38342,"ELEMENT_SET_NO":999,"REV_AT_EPOCH":4934,"BSTAR":0,"MEAN_MOTION_DOT":-1.91e-6,"MEAN_MOTION_DDOT":0},{"OBJECT_NAME":"ANIK G1","OBJECT_ID":"2013-014A","EPOCH":"2026-03-02T15:19:01.596288","MEAN_MOTION":1.00271456,"ECCENTRICITY":0.0003112,"INCLINATION":0.0593,"RA_OF_ASC_NODE":271.4965,"ARG_OF_PERICENTER":47.7381,"MEAN_ANOMALY":323.6171,"EPHEMERIS_TYPE":0,"CLASSIFICATION_TYPE":"U","NORAD_CAT_ID":39127,"ELEMENT_SET_NO":999,"REV_AT_EPOCH":4718,"BSTAR":0,"MEAN_MOTION_DOT":-9.1e-7,"MEAN_MOTION_DDOT":0},{"OBJECT_NAME":"TELSTAR 12V","OBJECT_ID":"2015-068A","EPOCH":"2026-03-02T17:27:59.722848","MEAN_MOTION":1.00271387,"ECCENTRICITY":0.0002634,"INCLINATION":0.0163,"RA_OF_ASC_NODE":106.3028,"ARG_OF_PERICENTER":239.0033,"MEAN_ANOMALY":62.1805,"EPHEMERIS_TYPE":0,"CLASSIFICATION_TYPE":"U","NORAD_CAT_ID":41036,"ELEMENT_SET_NO":999,"REV_AT_EPOCH":3755,"BSTAR":0,"MEAN_MOTION_DOT":-1.36e-6,"MEAN_MOTION_DDOT":0},{"OBJECT_NAME":"VIASAT-2","OBJECT_ID":"2017-029A","EPOCH":"2026-03-02T13:46:55.424640","MEAN_MOTION":1.00271541,"ECCENTRICITY":5.29e-5,"INCLINATION":0.0256,"RA_OF_ASC_NODE":248.135,"ARG_OF_PERICENTER":121.9999,"MEAN_ANOMALY":287.0371,"EPHEMERIS_TYPE":0,"CLASSIFICATION_TYPE":"U","NORAD_CAT_ID":42740,"ELEMENT_SET_NO":999,"REV_AT_EPOCH":3213,"BSTAR":0,"MEAN_MOTION_DOT":-2.82e-6,"MEAN_MOTION_DDOT":0},{"OBJECT_NAME":"LEO 1 (LEO VANTAGE 1)","OBJECT_ID":"2018-004C","EPOCH":"2026-03-02T16:22:07.169952","MEAN_MOTION":14.67102193,"ECCENTRICITY":0.0353474,"INCLINATION":99.2488,"RA_OF_ASC_NODE":326.0921,"ARG_OF_PERICENTER":46.344,"MEAN_ANOMALY":316.6496,"EPHEMERIS_TYPE":0,"CLASSIFICATION_TYPE":"U","NORAD_CAT_ID":43113,"ELEMENT_SET_NO":999,"REV_AT_EPOCH":42186,"BSTAR":0.00034221,"MEAN_MOTION_DOT":4.923e-5,"MEAN_MOTION_DDOT":0},{"OBJECT_NAME":"TELSTAR 19V","OBJECT_ID":"2018-059A","EPOCH":"2026-03-02T08:40:51.401856","MEAN_MOTION":1.00270922,"ECCENTRICITY":4.601e-5,"INCLINATION":0.0204,"RA_OF_ASC_NODE":163.5323,"ARG_OF_PERICENTER":253.4579,"MEAN_ANOMALY":170.3385,"EPHEMERIS_TYPE":0,"CLASSIFICATION_TYPE":"U","NORAD_CAT_ID":43562,"ELEMENT_SET_NO":999,"REV_AT_EPOCH":2807,"BSTAR":0,"MEAN_MOTION_DOT":-2.97e-6,"MEAN_MOTION_DDOT":0},{"OBJECT_NAME":"TELSTAR 18V","OBJECT_ID":"2018-069A","EPOCH":"2026-03-02T12:01:45.136704","MEAN_MOTION":1.00271776,"ECCENTRICITY":0.00023136,"INCLINATION":0.0216,"RA_OF_ASC_NODE":239.0373,"ARG_OF_PERICENTER":99.9795,"MEAN_ANOMALY":139.6885,"EPHEMERIS_TYPE":0,"CLASSIFICATION_TYPE":"U","NORAD_CAT_ID":43611,"ELEMENT_SET_NO":999,"REV_AT_EPOCH":2756,"BSTAR":0,"MEAN_MOTION_DOT":-3.11e-6,"MEAN_MOTION_DDOT":0}]
