NIMIQ 2                 
1 27632U 02062A   26061.56645256 -.00000081  00000+0  00000+0 0  9992
2 27632   9.2001  58.0030 0006514 286.4807 270.5810  1.00272452 43116
ANIK F2                 
1 28378U 04027A   26061.63743292 -.00000065  00000+0  00000+0 0  9992
2 28378   3.0095  80.8779 0002927 293.7000 264.1867  1.00272052 40194
ANIK F1R                
1 28868U 05036A   26061.63821292 -.00000090  00000+0  00000+0 0  9992
2 28868   4.0404  77.9143 0002761 295.7096 269.2480  1.00271884 45383
ANIK F3                 
1 31102U 07009A   26061.70723447 -.00000017  00000+0  00000+0 0  9999
2 31102   0.9224  85.2349 0002780 260.4763 310.6587  1.00272963 45494
NIMIQ 4                 
1 33373U 08044A   26061.57191259 -.00000237  00000+0  00000+0 0  9990
2 33373   0.0248 102.8730 0002317 251.0335 290.3147  1.00270743 63917
TELSTAR 11N             
1 34111U 09009A   26061.72335457 -.00000267  00000+0  00000+0 0  9993
2 34111   0.0199 130.3521 0002465 197.5012  55.4876  1.00273014 45178
TERRESTAR-1             
1 35496U 09035A   26061.56571112 -.00000070  00000+0  00000+0 0  9993
2 35496   5.0947  48.8329 0002900 299.7768 264.3814  1.00270461 61069
NIMIQ 5                 
1 35873U 09050A   26061.57373259 -.00000274  00000+0  00000+0 0  9998
2 35873   0.0573 272.0528 0002670  71.7061 310.4064  1.00270099 60277
SKYTERRA 1              
1 37218U 10061A   26061.56801257 -.00000132  00000+0  00000+0 0  9993
2 37218   4.8984  50.9142 0001607 286.3749 286.2007  1.00271346 56123
TELSTAR 14R             
1 37602U 11021A   26061.50422560 -.00000297  00000+0  00000+0 0  9999
2 37602   0.0408 275.3733 0002455  71.8133 291.5930  1.00273144 54764
NIMIQ 6                 
1 38342U 12026A   26061.57009259 -.00000191  00000+0  00000+0 0  9993
2 38342   0.0595 278.9549 0002650  56.0369 299.4770  1.00271052 49343
ANIK G1                 
1 39127U 13014A   26061.63821292 -.00000091  00000+0  00000+0 0  9998
2 39127   0.0593 271.4965 0003112  47.7381 323.6171  1.00271456 47181
TELSTAR 12V             
1 41036U 15068A   26061.72777457 -.00000136  00000+0  00000+0 0  9994
2 41036   0.0163 106.3028 0002634 239.0033  62.1805  1.00271387 37552
VIASAT-2                
1 42740U 17029A   26061.57425260 -.00000282  00000+0  00000+0 0  9993
2 42740   0.0256 248.1350 0000529 121.9999 287.0371  1.00271541 32139
LEO 1 (LEO VANTAGE 1)   
1 43113U 18004C   26061.68202743  .00004923  00000+0  34221-3 0  9994
2 43113  99.2488 326.0921 0353474  46.3440 316.6496 14.67102193421864
TELSTAR 19V             
1 43562U 18059A   26061.36170604 -.00000297  00000+0  00000+0 0  9992
2 43562   0.0204 163.5323 0000460 253.4579 170.3385  1.00270922 28073
TELSTAR 18V             
1 43611U 18069A   26061.50121686 -.00000311  00000+0  00000+0 0  9997
2 43611   0.0216 239.0373 0002313  99.9795 139.6885  1.00271776 27561
